BEIDOU-2 IGSO-2 (C07)   
1 37256U 10068A   26078.93917145 -.00000176  00000+0  00000+0 0  9993
2 37256  47.7058 272.9336 0047798 212.7858 135.9365  1.00254021 55890
